[
  {
    "name": "ONEWEB-0365",
    "noradId": "49291",
    "line1": "1 49291U 21090N   26192.75134881 -.00000071  00000+0 -20876-3 0  9999",
    "line2": "2 49291  87.9193 300.0765 0002060 101.4715 258.6649 13.19725822229667"
  },
  {
    "name": "ONEWEB-0366",
    "noradId": "49292",
    "line1": "1 49292U 21090P   26192.71747019  .00000114  00000+0  27373-3 0  9994",
    "line2": "2 49292  87.8972 284.8192 0002062  98.0341 262.1022 13.14501588230789"
  },
  {
    "name": "ONEWEB-0367",
    "noradId": "49293",
    "line1": "1 49293U 21090Q   26192.70836051  .00000032  00000+0  46508-4 0  9990",
    "line2": "2 49293  87.9189 269.5550 0002234 102.3335 257.8048 13.20772771233066"
  },
  {
    "name": "ONEWEB-0368",
    "noradId": "49294",
    "line1": "1 49294U 21090R   26192.75803200 -.00000026  00000+0 -96167-4 0  9997",
    "line2": "2 49294  87.9176 269.5527 0001530 113.6396 246.4898 13.20771299234227"
  },
  {
    "name": "ONEWEB-0369",
    "noradId": "49295",
    "line1": "1 49295U 21090S   26192.74660301  .00003001  00000+0  74622-2 0  9994",
    "line2": "2 49295  87.9165 300.0830 0001378 105.3296 254.7989 13.19715678229652"
  },
  {
    "name": "ONEWEB-0370",
    "noradId": "49296",
    "line1": "1 49296U 21090T   26192.71762366  .00000044  00000+0  77223-4 0  9992",
    "line2": "2 49296  87.9189 269.5522 0002401  95.5136 264.6271 13.20771931233102"
  },
  {
    "name": "ONEWEB-0371",
    "noradId": "49297",
    "line1": "1 49297U 21090U   26192.75450397 -.00000022  00000+0 -87648-4 0  9995",
    "line2": "2 49297  87.9201 300.0740 0002065  92.8918 267.2451 13.19723822229697"
  },
  {
    "name": "ONEWEB-0372",
    "noradId": "49298",
    "line1": "1 49298U 21090V   26192.63160981 -.00000205  00000+0 -53614-3 0  9998",
    "line2": "2 49298  87.9188 269.5712 0002126  99.7163 260.4211 13.20771025233061"
  },
  {
    "name": "ONEWEB-0373",
    "noradId": "49299",
    "line1": "1 49299U 21090W   26192.73276264  .00000092  00000+0  19436-3 0  9998",
    "line2": "2 49299  87.9178 269.5522 0001985 100.6739 259.4618 13.20773546234265"
  },
  {
    "name": "ONEWEB-0374",
    "noradId": "49300",
    "line1": "1 49300U 21090X   26192.78089127  .00000238  00000+0  60837-3 0  9999",
    "line2": "2 49300  87.8973 284.7982 0001659  85.9219 274.2101 13.14502853230795"
  },
  {
    "name": "ONEWEB-0375",
    "noradId": "49301",
    "line1": "1 49301U 21090Y   26192.72098314  .00000003  00000+0 -23690-4 0  9990",
    "line2": "2 49301  87.9189 269.5454 0001801  84.1493 275.9846 13.20772473233763"
  },
  {
    "name": "ONEWEB-0376",
    "noradId": "49302",
    "line1": "1 49302U 21090Z   26192.75292016 -.00000112  00000+0 -31108-3 0  9993",
    "line2": "2 49302  87.9194 300.0754 0002061 105.4133 254.7228 13.19725863229696"
  },
  {
    "name": "ONEWEB-0377",
    "noradId": "49303",
    "line1": "1 49303U 21090AA  26192.70765606  .00000013  00000+0 -18595-6 0  9996",
    "line2": "2 49303  87.9190 269.5502 0002018  93.6913 266.4451 13.20772811233756"
  },
  {
    "name": "ONEWEB-0378",
    "noradId": "49304",
    "line1": "1 49304U 21090AB  26192.65210975  .00000001  00000+0 -29362-4 0  9994",
    "line2": "2 49304  87.9183 269.5652 0001961  96.7738 263.3619 13.20771682233016"
  },
  {
    "name": "ONEWEB-0379",
    "noradId": "49305",
    "line1": "1 49305U 21090AC  26192.77613770  .00000310  00000+0  80266-3 0  9999",
    "line2": "2 49305  87.8969 284.8094 0001946  98.3947 261.7404 13.14503111230790"
  },
  {
    "name": "ONEWEB-0380",
    "noradId": "49306",
    "line1": "1 49306U 21090AD  26192.74977116 -.00000035  00000+0 -11853-3 0  9996",
    "line2": "2 49306  87.9184 300.0800 0002030  94.0136 266.1229 13.19726266229666"
  },
  {
    "name": "ONEWEB-0381",
    "noradId": "49307",
    "line1": "1 49307U 21090AE  26192.77989199  .00000094  00000+0  19910-3 0  9999",
    "line2": "2 49307  87.9189 269.5405 0001873  91.5082 268.6266 13.20773639233074"
  },
  {
    "name": "ONEWEB-0382",
    "noradId": "49308",
    "line1": "1 49308U 21090AF  26192.76644612  .00000065  00000+0  12872-3 0  9995",
    "line2": "2 49308  87.9187 269.5371 0001831  94.7777 265.3565 13.20771942233065"
  },
  {
    "name": "ONEWEB-0383",
    "noradId": "49309",
    "line1": "1 49309U 21090AG  26192.76979605  .00000046  00000+0  88283-4 0  9998",
    "line2": "2 49309  87.8972 284.8026 0001895 100.0114 260.1229 13.14502474230826"
  },
  {
    "name": "ONEWEB-0384",
    "noradId": "49310",
    "line1": "1 49310U 21090AH  26192.75430825 -.00000118  00000+0 -32137-3 0  9993",
    "line2": "2 49310  87.9181 269.5849 0001530  99.5321 260.5986 13.20813590233077"
  },
  {
    "name": "ONEWEB-0385",
    "noradId": "49311",
    "line1": "1 49311U 21090AJ  26192.75969372 -.00000166  00000+0 -44067-3 0  9996",
    "line2": "2 49311  87.9187 269.5438 0001934  95.1644 264.9710 13.20769335233043"
  },
  {
    "name": "ONEWEB-0386",
    "noradId": "49312",
    "line1": "1 49312U 21090AK  26192.77653221 -.00000023  00000+0 -88487-4 0  9999",
    "line2": "2 49312  87.9192 269.5323 0001833  95.7936 264.3406 13.20772583233068"
  },
  {
    "name": "ONEWEB-0387",
    "noradId": "49313",
    "line1": "1 49313U 21090AL  26192.76136951  .00001246  00000+0  30310-2 0  9991",
    "line2": "2 49313  87.9162 269.5558 0002365  91.1277 269.0127 13.20771535233063"
  },
  {
    "name": "ONEWEB-0388",
    "noradId": "49314",
    "line1": "1 49314U 21090AM  26192.74503002 -.00000028  00000+0 -10200-3 0  9991",
    "line2": "2 49314  87.9182 300.0791 0001859  98.2572 261.8771 13.19726343229659"
  },
  {
    "name": "ONEWEB-0389",
    "noradId": "50469",
    "line1": "1 50469U 21132A   26192.49828445 -.00000061  00000+0 -18983-3 0  9997",
    "line2": "2 50469  87.9127   1.0300 0001527  75.3807 284.7493 13.17650425221285"
  },
  {
    "name": "ONEWEB-0390",
    "noradId": "50470",
    "line1": "1 50470U 21132B   26192.49997164  .00000028  00000+0  39576-4 0  9997",
    "line2": "2 50470  87.9138   1.0318 0002051  90.8347 269.3019 13.17650516221286"
  },
  {
    "name": "ONEWEB-0391",
    "noradId": "50471",
    "line1": "1 50471U 21132C   26192.50165923 -.00000001  00000+0 -34673-4 0  9996",
    "line2": "2 50471  87.9149   1.0430 0002417  75.8179 284.3221 13.17650419221280"
  },
  {
    "name": "ONEWEB-0392",
    "noradId": "50472",
    "line1": "1 50472U 21132D   26192.45610244  .00000089  00000+0  19718-3 0  9998",
    "line2": "2 50472  87.9122   1.0199 0001742  78.3343 281.7984 13.17650007221319"
  },
  {
    "name": "ONEWEB-0393",
    "noradId": "50473",
    "line1": "1 50473U 21132E   26192.50757031  .00000046  00000+0  85750-4 0  9994",
    "line2": "2 50473  87.9139   1.0255 0001772  85.5333 274.6001 13.17647463221316"
  },
  {
    "name": "ONEWEB-0394",
    "noradId": "50474",
    "line1": "1 50474U 21132F   26192.75796859 -.00000071  00000+0 -21159-3 0  9995",
    "line2": "2 50474  87.9191 330.5563 0001747  95.3256 264.8075 13.18683917224839"
  }
]