OBJECT_NAME,OBJECT_ID,EPOCH,MEAN_MOTION,ECCENTRICITY,INCLINATION,RA_OF_ASC_NODE,ARG_OF_PERICENTER,MEAN_ANOMALY,EPHEMERIS_TYPE,CLASSIFICATION_TYPE,NORAD_CAT_ID,ELEMENT_SET_NO,REV_AT_EPOCH,BSTAR,MEAN_MOTION_DOT,MEAN_MOTION_DDOT
ONEWEB-0365,2021-090N,2026-07-11T18:01:56.537184,13.19725822,.000206,87.9193,300.0765,101.4715,258.6649,0,U,49291,999,22966,-.20876169E-3,-.71E-6,0
ONEWEB-0366,2021-090P,2026-07-11T17:13:09.424416,13.14501588,.00020627,87.8972,284.8192,98.0341,262.1022,0,U,49292,999,23078,.2737341E-3,.114E-5,0
ONEWEB-0367,2021-090Q,2026-07-11T17:00:02.348064,13.20772771,.00022342,87.9189,269.5550,102.3335,257.8048,0,U,49293,999,23306,.46508493E-4,.32E-6,0
ONEWEB-0368,2021-090R,2026-07-11T18:11:33.964800,13.20771299,.00015307,87.9176,269.5527,113.6396,246.4898,0,U,49294,999,23422,-.96167492E-4,-.26E-6,0
ONEWEB-0369,2021-090S,2026-07-11T17:55:06.500064,13.19715678,.00013783,87.9165,300.0830,105.3296,254.7989,0,U,49295,999,22965,.74622003E-2,.3001E-4,0
ONEWEB-0370,2021-090T,2026-07-11T17:13:22.684224,13.20771931,.0002401,87.9189,269.5522,95.5136,264.6271,0,U,49296,999,23310,.77223225E-4,.44E-6,0
ONEWEB-0371,2021-090U,2026-07-11T18:06:29.143008,13.19723822,.00020657,87.9201,300.0740,92.8918,267.2451,0,U,49297,999,22969,-.87647642E-4,-.22E-6,0
ONEWEB-0372,2021-090V,2026-07-11T15:09:31.087584,13.20771025,.00021267,87.9188,269.5712,99.7163,260.4211,0,U,49298,999,23306,-.53613965E-3,-.205E-5,0
ONEWEB-0373,2021-090W,2026-07-11T17:35:10.692096,13.20773546,.00019856,87.9178,269.5522,100.6739,259.4618,0,U,49299,999,23426,.19435545E-3,.92E-6,0
ONEWEB-0374,2021-090X,2026-07-11T18:44:29.005728,13.14502853,.00016593,87.8973,284.7982,85.9219,274.2101,0,U,49300,999,23079,.60837226E-3,.238E-5,0
ONEWEB-0375,2021-090Y,2026-07-11T17:18:12.943296,13.20772473,.00018012,87.9189,269.5454,84.1493,275.9846,0,U,49301,999,23376,-.23690297E-4,.3E-7,0
ONEWEB-0376,2021-090Z,2026-07-11T18:04:12.301824,13.19725863,.0002061,87.9194,300.0754,105.4133,254.7228,0,U,49302,999,22969,-.31107604E-3,-.112E-5,0
ONEWEB-0377,2021-090AA,2026-07-11T16:59:01.483584,13.20772811,.00020186,87.9190,269.5502,93.6913,266.4451,0,U,49303,999,23375,-.185946E-6,.13E-6,0
ONEWEB-0378,2021-090AB,2026-07-11T15:39:02.282400,13.20771682,.00019619,87.9183,269.5652,96.7738,263.3619,0,U,49304,999,23301,-.29361979E-4,.1E-7,0
ONEWEB-0379,2021-090AC,2026-07-11T18:37:38.297280,13.14503111,.00019463,87.8969,284.8094,98.3947,261.7404,0,U,49305,999,23079,.80266277E-3,.31E-5,0
ONEWEB-0380,2021-090AD,2026-07-11T17:59:40.228224,13.19726266,.00020304,87.9184,300.0800,94.0136,266.1229,0,U,49306,999,22966,-.1185289E-3,-.35E-6,0
ONEWEB-0381,2021-090AE,2026-07-11T18:43:02.667936,13.20773639,.00018731,87.9189,269.5405,91.5082,268.6266,0,U,49307,999,23307,.19909896E-3,.94E-6,0
ONEWEB-0382,2021-090AF,2026-07-11T18:23:40.944768,13.20771942,.00018311,87.9187,269.5371,94.7777,265.3565,0,U,49308,999,23306,.12872434E-3,.65E-6,0
ONEWEB-0383,2021-090AG,2026-07-11T18:28:30.378720,13.14502474,.00018955,87.8972,284.8026,100.0114,260.1229,0,U,49309,999,23082,.88283055E-4,.46E-6,0
ONEWEB-0384,2021-090AH,2026-07-11T18:06:12.232800,13.20813590,.00015302,87.9181,269.5849,99.5321,260.5986,0,U,49310,999,23307,-.32136586E-3,-.118E-5,0
ONEWEB-0385,2021-090AJ,2026-07-11T18:13:57.537408,13.20769335,.00019347,87.9187,269.5438,95.1644,264.9710,0,U,49311,999,23304,-.44066686E-3,-.166E-5,0
ONEWEB-0386,2021-090AK,2026-07-11T18:38:12.382944,13.20772583,.00018338,87.9192,269.5323,95.7936,264.3406,0,U,49312,999,23306,-.88487325E-4,-.23E-6,0
ONEWEB-0387,2021-090AL,2026-07-11T18:16:22.325664,13.20771535,.00023658,87.9162,269.5558,91.1277,269.0127,0,U,49313,999,23306,.30310214E-2,.1246E-4,0
ONEWEB-0388,2021-090AM,2026-07-11T17:52:50.593728,13.19726343,.00018598,87.9182,300.0791,98.2572,261.8771,0,U,49314,999,22965,-.10199775E-3,-.28E-6,0
ONEWEB-0389,2021-132A,2026-07-11T11:57:31.776480,13.17650425,.00015271,87.9127,1.0300,75.3807,284.7493,0,U,50469,999,22128,-.1898329E-3,-.61E-6,0
ONEWEB-0390,2021-132B,2026-07-11T11:59:57.549696,13.17650516,.00020513,87.9138,1.0318,90.8347,269.3019,0,U,50470,999,22128,.39575846E-4,.28E-6,0
ONEWEB-0391,2021-132C,2026-07-11T12:02:23.357472,13.17650419,.00024176,87.9149,1.0430,75.8179,284.3221,0,U,50471,999,22128,-.34673399E-4,-.1E-7,0
ONEWEB-0392,2021-132D,2026-07-11T10:56:47.250816,13.17650007,.00017421,87.9122,1.0199,78.3343,281.7984,0,U,50472,999,22131,.1971769E-3,.89E-6,0
ONEWEB-0393,2021-132E,2026-07-11T12:10:54.074784,13.17647463,.00017724,87.9139,1.0255,85.5333,274.6001,0,U,50473,999,22131,.85749973E-4,.46E-6,0
ONEWEB-0394,2021-132F,2026-07-11T18:11:28.486176,13.18683917,.00017476,87.9191,330.5563,95.3256,264.8075,0,U,50474,999,22483,-.21158842E-3,-.71E-6,0
